{
  "norad_id": 66949,
  "name": "STARLINK-36096",
  "history": [
    {
      "epoch": "2026-03-28T21:59:16.548864",
      "apogee_km": 475.7580133671536,
      "perigee_km": 474.6080262678279,
      "latitude_deg": 53.15281944258738,
      "longitude_deg": -117.14827904012054,
      "semi_major_axis_km": 6853.320019817491,
      "eccentricity": 8.39e-05,
      "inclination_deg": 53.158,
      "raan_deg": 268.914,
      "arg_perigee_deg": 88.7759,
      "mean_anomaly_deg": 271.3337,
      "mean_motion_rev_day": 15.30210734
    }
  ]
}